site_name,address,city,long,lat,county
Dollar Tree 5522,2222 Business Cir,San Jose,-121.93281,37.323013,Santa Clara
"Joya Supermarket, Llc.",2512 California St,Mountain View,-122.10679,37.403904,Santa Clara
Safeway 2887,150 E El Camino Real,Sunnyvale,-122.03108,37.366657,Santa Clara
Morgans Hill Market,16935 Monterey St,Morgan Hill,-121.64956,37.124382,Santa Clara
Bakery/Panaderia La Mejor,1239 E Julian St,San Jose,-121.87022,37.351727,Santa Clara
6 To Late Food & Liquors,5138 Monterey Hwy,San Jose,-121.81345,37.262405,Santa Clara
Dollar Tree 5212,2585 Almaden Rd,San Jose,-121.88274,37.283138,Santa Clara
TAJ MAHAL,3109 El Camino Real,Santa Clara,-121.98295,37.352505,Santa Clara
Tolentino's Meat Market,17865 Monterey Rd,Morgan Hill,-121.65817,37.134521,Santa Clara
Co 6 Trai Cay,992 Story Rd,San Jose,-121.85501,37.330822,Santa Clara
GURU'S FOOD & LIQUOR,501 N 17th St,San Jose,-121.88093,37.352528,Santa Clara
Lucky 222,1641 N Capitol Ave,San Jose,-121.87298,37.397305,Santa Clara
Etminan Market,1373 Kooser Rd,San Jose,-121.88934,37.246254,Santa Clara
STORY SUPER MARKET,1200 Story Rd,San Jose,-121.85291,37.333096,Santa Clara
DELMAS MARKET,101 Delmas Ave,San Jose,-121.89773,37.330173,Santa Clara
Asian Live Seafood,2559 S King Rd,San Jose,-121.82345,37.319717,Santa Clara
7-eleven 14265G,1880 Curtner Ave,San Jose,-121.92284,37.275753,Santa Clara
Country Store,16390 Monterey St,Morgan Hill,-121.64578,37.117954,Santa Clara
Phnom Penh Market,2365 Mckee Rd,San Jose,-121.84881,37.366325,Santa Clara
Baby Nutritional Care 106,7500 Arroyo Cir,Gilroy,-121.55774,37.011906,Santa Clara
Friends Food & Liqour,343 E 10th St,Gilroy,-121.56218,37.001373,Santa Clara
Walmart Neighborhood Market 2486,4080 Stevens Creek Blvd,San Jose,-121.97323,37.323132,Santa Clara
One Stop Market,1493 E Bayshore Rd,East Palo Alto,-122.14422,37.462875,Santa Clara
PANADERIA ORTIZ BAKERY,3826 7 Trees Blvd,San Jose,-121.83521,37.283997,Santa Clara
7-Eleven 27768B,708 N Fair Oaks Ave,Sunnyvale,-122.01416,37.39151,Santa Clara
Morgan Hill Farmers Market,17300 Depot St,Morgan Hill,-121.65065,37.129078,Santa Clara
Safeway 2948,645 San Antonio Rd,Mountain View,-122.11295,37.402306,Santa Clara
SAFEWAY  1574,4950 Almaden Expy,San Jose,-121.87623,37.260216,Santa Clara
7 Eleven Store 2367 39747A,1031 Leigh Ave,San Jose,-121.92157,37.306129,Santa Clara
Mexico Bakery Inc. 1,2811 Story Rd,San Jose,-121.82407,37.352856,Santa Clara
7-Eleven 39411A,3145 S Bascom Ave,Campbell,-121.94083,37.266552,Santa Clara
Apna Bazar,1111 W El Camino Real,Sunnyvale,-122.05347,37.373154,Santa Clara
Great America Shell 172,5390 Great America Pkwy,Santa Clara,-121.97781,37.410065,Santa Clara
Lion Foods Llc,2217 Quimby Rd,San Jose,-121.81143,37.32325,Santa Clara
Quick N Easy,8429 Murray Ave,Gilroy,-121.56959,37.022015,Santa Clara
Mi Ranchito Produce,259 E Maude Ave,Sunnyvale,-122.02386,37.38755,Santa Clara
Nob HIll 636,3555 Monroe St,Santa Clara,-121.99442,37.36692,Santa Clara
Lunardi's Market 10,2666 S Bascom Ave,San Jose,-121.93471,37.273472,Santa Clara
Lundy Liquor Inc,964 Lundy Ave,San Jose,-121.87272,37.373585,Santa Clara
7-Eleven 23866 E,780 N Winchester Blvd,San Jose,-121.9502,37.329781,Santa Clara
Stop-N-Buy 2,175 S Capitol Ave,San Jose,-121.83324,37.359715,Santa Clara
Chevron 1776,1151 Tully Rd,San Jose,-121.83707,37.314934,Santa Clara
First Mart,3730 N 1st St,San Jose,-121.94627,37.410545,Santa Clara
Hyde Park U Save Liquors,1330 N 1st St,San Jose,-121.90861,37.360668,Santa Clara
Familia Foods,3851 7 Trees Blvd,San Jose,-121.83305,37.283607,Santa Clara
Taj Mahal 2,933 E Duane Ave,Sunnyvale,-122.00334,37.388447,Santa Clara
El Charrito Market,7638 Monterey St,Gilroy,-121.57034,37.010567,Santa Clara
MY GOODS MARKET 5442,7022 Santa Teresa Blvd,San Jose,-121.77631,37.226555,Santa Clara
Safeway 3241,950 W Hamilton Ave,Campbell,-121.96652,37.294125,Santa Clara
Silver Creek Shell 178,5801 Silver Creek Valley Rd,San Jose,-121.7795,37.276684,Santa Clara
Indo-pak Halal Market,1729 Berryessa Rd,San Jose,-121.87248,37.374538,Santa Clara
FOOD MAXX  460,1539 Parkmoor Ave,San Jose,-121.91488,37.316708,Santa Clara
Neighborhood Gas Mart,8445 Cabrillo Hwy,Montara,-122.51621,37.541744,Santa Clara
"Lucky 7 King, Inc. 3",398 S King Rd,San Jose,-121.84859,37.345638,Santa Clara
Rose Market,1250 E Santa Clara St,San Jose,-121.86603,37.347824,Santa Clara
Carniceria La Sorpresa,311B Moffett Blvd,Mountain View,-122.07618,37.397888,Santa Clara
Guadalajara Market,829 Borregas Ave,Sunnyvale,-122.02291,37.397022,Santa Clara
Walgreens 689,121 E El Camino Real,Mountain View,-122.07225,37.379921,Santa Clara
Paul's Imperio Liquors  2,134 E San Salvador St,San Jose,-121.88336,37.331238,Santa Clara
Willow Glen Way Market,450 Willow Glen Way,San Jose,-121.88043,37.304005,Santa Clara
El dorado Liquor & Market,449 Keyes St,San Jose,-121.86906,37.324139,Santa Clara
Safeway Community Market 2454,690 Fremont Ave,Los Altos,-122.09676,37.360451,Santa Clara
NEW WING YUAN MARKET,1139 N Lawrence Expy,Sunnyvale,-121.99592,37.397301,Santa Clara
Paps Hecker Pass Liquor 0,221 1st St,Gilroy,-121.57531,37.013828,Santa Clara
Pauls Imperio Liquor & Taqueria,203 S King Rd,San Jose,-121.85249,37.349602,Santa Clara
7-eleven Store 15952,596 N Abel St,Milpitas,-121.91068,37.436249,Santa Clara
Lucky 233,3457 McKee Rd,San Jose,-121.82738,37.380749,Santa Clara
7-eleven 18445e 18445e,315 Saratoga Ave,Santa Clara,-121.96376,37.330402,Santa Clara
Smart & Final 451,1180 S King Rd,San Jose,-121.84148,37.338364,Santa Clara
7 Eleven 2367- 14288B,404 S 6th St,San Jose,-121.88056,37.332417,Santa Clara
Vraich Liquors,901 Vine St,San Jose,-121.88451,37.320061,Santa Clara
South San Jose Grocery Outlet 151,1665 Foxworthy Ave,San Jose,-121.90686,37.270477,Santa Clara
New Seasons Market - Evergreen 1205,5667 Silver Creek Valley Rd,San Jose,-121.78,37.288387,Santa Clara
Westside Market and Liquor,1340G 1st St,Gilroy,-121.59663,37.013428,Santa Clara
SMART & FINAL 432,141 E El Camino Real,Mountain View,-122.07169,37.379692,Santa Clara
Sprouts Farmers Market 287,20558 Stevens Creek Blvd,Cupertino,-122.03322,37.322784,Santa Clara
7 Eleven 14220G,1444 S Winchester Blvd,San Jose,-121.94985,37.297779,Santa Clara
Spartan Market,351 E William St,San Jose,-121.87733,37.332199,Santa Clara
Kaiser Santa Clara,710 Lawrence Expy,Santa Clara,-121.99582,37.335438,Santa Clara
Delizias Bakery Inc.,3975 Senter Rd,San Jose,-121.82426,37.283581,Santa Clara
Olivera Egg Ranch Store,3315 Sierra Rd,San Jose,-121.84564,37.400425,Santa Clara
Bird Avenue Shell 18,395 Bird Ave,San Jose,-121.89967,37.323586,Santa Clara
San Martin Market,13320 Depot St,San Martin,-121.60952,37.085575,Santa Clara
La Plaza Market 3,515 McLaughlin Ave,San Jose,-121.86193,37.341007,Santa Clara
GURU'S MARKET,148 GEORGE ST,SAN JOSE,-121.90136,37.346806,Santa Clara
TAK FOOD & LIQUOR,1091 McCreery Ave,San Jose,-121.84091,37.342327,Santa Clara
Smart & Final 810,1290 W San Carlos St,San Jose,-121.91115,37.323383,Santa Clara
Dollar Tree 4681,2155 Tully Rd,San Jose,-121.81955,37.326813,Santa Clara
Quick Henderson Market,1053 E El camino Real,Sunnyvale,-122.00435,37.352318,Santa Clara
Liquor And Grocery,4645 Cherry Ave,San Jose,-121.88504,37.259979,Santa Clara
Alma's Liquor & Grocery,148 W Alma Ave,San Jose,-121.87646,37.314278,Santa Clara
Wing Lee Fresh Poultry & Meat,1166 Tully Rd,San Jose,-121.83611,37.315289,Santa Clara
Gonzalez Produce 1,1590 Berryessa Rd,San Jose,-121.8796,37.369144,Santa Clara
Los Altos Farmers Market,1 Second And State St,Los Altos,-122.11737,37.379169,Santa Clara
"Fancy Foods, Inc.",2523 Winchester Blvd,Campbell,-121.95003,37.277313,Santa Clara
Roadrunenr Petroleum Inc 01,1111 N Capitol Ave,San Jose,-121.86033,37.386162,Santa Clara
SAFEWAY  1293,2341 Winchester Blvd,Campbell,-121.94987,37.280491,Santa Clara
WALGREEN 4372,780 E Santa Clara St,San Jose,-121.87477,37.343636,Santa Clara
Desi Bazar Desi Kitchen (my Bangla Bazar) Store-2,712 S Wolfe Rd,Sunnyvale,-122.01376,37.366024,Santa Clara
WALGREENS 5480,1833 N Milpitas Blvd,Milpitas,-121.91139,37.456753,Santa Clara
Mapleleaf Liquor,1146 Saratoga Ave,San Jose,-121.97917,37.303963,Santa Clara
Me-Kong Supermarket,777 E Capitol Ave,Milpitas,-121.88895,37.407825,Santa Clara
Tropical Fruits,3005 Silver Creek Rd,San Jose,-121.8133,37.30986,Santa Clara
The Citi Mini Market,1354 The Alameda,San Jose,-121.91333,37.332699,Santa Clara
Quick Buy Market,2021 Homestead Rd,Santa Clara,-121.96007,37.343636,Santa Clara
Desi International Market,1290 S Bascom Ave,San Jose,-121.93167,37.301769,Santa Clara
Super Kyopo Plaza 1,3521 Homestead Rd,Santa Clara,-121.99426,37.337856,Santa Clara
SMART & FINAL 433,5281 Prospect Rd,San Jose,-121.99469,37.292206,Santa Clara
Starlite Shell 35,1780 S Main St,Milpitas,-121.90285,37.404861,Santa Clara
MCKEE LIQUOR,3750 McKee Rd,San Jose,-121.83047,37.378548,Santa Clara
7 Eleven 2236-14315g 14315G,708 Colorado Ave,Palo Alto,-122.1282,37.433147,Santa Clara
Bonfare Market 39,5251 Camden Ave,San Jose,-121.90561,37.242573,Santa Clara
Dollar Tree 5488,3065 Meridian Ave,San Jose,-121.90545,37.269737,Santa Clara
Safeway 2814,160 1st St,Los Altos,-122.11884,37.3792,Santa Clara
7 Eleven Inc 14212C,3580 Monroe St,Santa Clara,-121.99502,37.366821,Santa Clara
Garden Market,1933 Pulgas Ave,East Palo Alto,-122.12993,37.455166,Santa Clara
Morgan Hill Foods,225 W Main Ave,Morgan Hill,-121.65904,37.127865,Santa Clara
Namaste Plaza,1637 Hollenbeck Ave,Sunnyvale,-122.04256,37.339291,Santa Clara
BONFARE MARKET 11,408 W Capitol Expy,San Jose,-121.85024,37.274433,Santa Clara
7 Eleven 2367-1740C,2335 Winchester Blvd,Campbell,-121.94987,37.280704,Santa Clara
7-eleven Store 16117D,5152 Monterey Hwy,San Jose,-121.81313,37.262215,Santa Clara
Quik Stop Market 5034,2704 S Bascom Ave,San Jose,-121.93571,37.272259,Santa Clara
Walmart SuperCenter 5884,5095 Almaden Expy,San Jose,-121.87615,37.256878,Santa Clara
Apatzingan Meat Market,7237 Monterey St,Gilroy,-121.56759,37.004326,Santa Clara
AC Grocery,702 E Santa Clara St,San Jose,-121.87602,37.343037,Santa Clara
Berryessa Farmers' Market,1376 Piedmont Rd,San Jose,-121.84891,37.403904,Santa Clara
Evergreen Farmers' Market,4055 Evergreen Village Sq,San Jose,-121.77357,37.313686,Santa Clara
Discount Mini Mart 2,1587 Kooser Rd,San Jose,-121.90302,37.24052,Santa Clara
JT Liquors,2627 Senter Rd,San Jose,-121.84248,37.302399,Santa Clara
Milpitas Farmers' Market,525 Los Coches St,Milpitas,-121.89535,37.431377,Santa Clara
San Jose Downtown Farmers' Market,18 N San Pedro St,San Jose,-121.89316,37.335548,Santa Clara
Santa Teresa Farmers' Market,6232 Santa Teresa Blvd,San Jose,-121.80163,37.237053,Santa Clara
Garlic Farm Food Centre 51,5920 Travel Park Cir,Gilroy,-121.5564,36.985035,Santa Clara
7 Eleven 2367 37256A,2230 Stevens Creek Blvd,San Jose,-121.9333,37.323254,Santa Clara
Petes Stop & Mini Mart,290 Keyes St,San Jose,-121.87218,37.322586,Santa Clara
Dollar Tree 4978,199 E Middlefield Rd,Mountain View,-122.06187,37.397694,Santa Clara
4th & Santa Clara Chevron,147 E Santa Clara St,San Jose,-121.88764,37.337616,Santa Clara
Walgreens 12548,1130 Foxworthy Ave,San Jose,-121.88104,37.277706,Santa Clara
Miami Liquor & Food 1,876 The Alameda,San Jose,-121.90722,37.331692,Santa Clara
Y Market & Liquor,233 S White Rd,San Jose,-121.82527,37.362789,Santa Clara
Walgreens 2739,440 Blossom Hill Rd,San Jose,-121.83023,37.251202,Santa Clara
Mj Market,1187 Redmond Ave,San Jose,-121.87318,37.229347,Santa Clara
7 Eleven 14242D,57 S Park Victoria Dr,Milpitas,-121.88382,37.434048,Santa Clara
King's Seafood Center Inc,425 E El Camino Real,Sunnyvale,-122.02819,37.364613,Santa Clara
TAK MARKET & LIQUOR INC,698 N 3rd St,San Jose,-121.898,37.35006,Santa Clara
Walmart Supercenter 2119,301 Ranch Dr,Milpitas,-121.91994,37.432354,Santa Clara
Arteaga's Food Center,6906 Automall Pkwy,Gilroy,-121.5602,37.00037,Santa Clara
7 Eleven 35644B,601 Bird Ave,San Jose,-121.89804,37.320038,Santa Clara
Conasuper,3828 Seven Trees Blvd,San Jose,-121.83516,37.283997,Santa Clara
FOOD MAXX  461,1972 Tully Rd,San Jose,-121.82152,37.325153,Santa Clara
Sprouts Farmers Market 271,630 San Antonio Rd,Mountain View,-122.11312,37.402195,Santa Clara
Bonfare Market 9,5489 Snell Ave,San Jose,-121.83097,37.253845,Santa Clara
Almaden/via Valiente Farmer Market,6902 Almaden Expy,San Jose,-121.84908,37.212337,Santa Clara
Sprouts Farmers Market 269,5205 Prospect Rd,San Jose,-121.99393,37.292088,Santa Clara
Walgreens 13948,1905 W El Camino Real,Mountain View,-122.0963,37.392788,Santa Clara
7 Eleven 2367 15532E,3775 Williams Rd,San Jose,-121.96693,37.308495,Santa Clara
Bonfare Market   22,1175 E Julian St,San Jose,-121.87105,37.351162,Santa Clara
Mi Tierra Super Mercado,1130 E Santa Clara St,San Jose,-121.86781,37.346947,Santa Clara
Patron Liquors & Grocery Store,252 Willow St,San Jose,-121.88338,37.318218,Santa Clara
Don Mateo Foods And Spices,1062 E Santa Clara St,San Jose,-121.86943,37.346195,Santa Clara
Mercado San Jose,3054 Alum Rock Ave,San Jose,-121.82879,37.365368,Santa Clara
7 Eleven 14216f 14216F,281 Washington St,Santa Clara,-121.94049,37.343231,Santa Clara
Lafayette Food & Liquor,1670 Lafayette St,Santa Clara,-121.94676,37.356445,Santa Clara
Maxim Market 3,955 Mclaughlin Ave,San Jose,-121.85567,37.334618,Santa Clara
Cabrillo Market And Liquors,3203 Cabrillo Ave,Santa Clara,-121.98463,37.358269,Santa Clara
DOLLARTREE 8281,4095 Evrgrn Village Sq.,San Jose,-121.67546,37.265144,Santa Clara
Paul's Grocery Market,17020 Condit Rd,Morgan Hill,-121.63075,37.133415,Santa Clara
7-Eleven 36004A,1255 E Santa Clara St,San Jose,-121.86585,37.347977,Santa Clara
Sprouts Farmers Market 270,1130 Branham Ln,San Jose,-121.8792,37.262272,Santa Clara
CVS/pharmacy 422,4110 N 1st St,San Jose,-121.95301,37.414696,Santa Clara
SMART & FINAL 448,2065 El Camino Real,Santa Clara,-121.96113,37.352497,Santa Clara
Lucky 762,6109 Meridian Ave,San Jose,-121.88448,37.228176,Santa Clara
Kwik Serv,2211 Monroe St,Santa Clara,-121.96245,37.361626,Santa Clara
Whole Foods Market 10027,15980 Los Gatos Blvd,Los Gatos,-121.96278,37.236111,Santa Clara
WALGREENS 2265,1130 Bird Ave,San Jose,-121.89497,37.31057,Santa Clara
WALGREENS 02612,200 N Winchester Blvd,Santa Clara,-121.9503,37.329929,Santa Clara
Real Produce Inc,5353 Almaden Express Way,San Jose,-121.87564,37.252346,Santa Clara
New India Bazar 7,2850 Quimby Rd,San Jose,-121.79806,37.325104,Santa Clara
Arteagas Food Center (santa Clara),2103 Scott Blvd,Santa Clara,-121.95946,37.361137,Santa Clara
LIL GROCER,5807 Cottle Rd,San Jose,-121.80402,37.245846,Santa Clara
Whole Foods Market 10033,1690 S Bascom Ave,Campbell,-121.93154,37.292759,Santa Clara
Jl Produce,311 Moffett Blvd,Mountain View,-122.07621,37.397881,Santa Clara
7-Eleven 39690A,190 W Calaveras Blvd,Milpitas,-121.91016,37.427795,Santa Clara
Franco Imports,157 Old Gilroy St,Gilroy,-121.56608,37.005917,Santa Clara
7 Eleven 14262D,5745 Camden Ave,San Jose,-121.90356,37.232525,Santa Clara
Easy Mart II,1460 Oakland Rd,San Jose,-121.89436,37.373802,Santa Clara
T.T. SEAFOOD 1,2517 S King Rd,San Jose,-121.82414,37.320435,Santa Clara
99 RANCH MARKET 68,10983 N Wolfe Rd,Cupertino,-122.01438,37.336452,Santa Clara
Lucky 780,484 N Mathilda Ave,Sunnyvale,-122.03056,37.388706,Santa Clara
BILLS MARKET,204 Oakland Ave,San Jose,-121.84798,37.351971,Santa Clara
Quik Stop 9094,1510 Mt Pleasant Dr,San Jose,-121.80056,37.355255,Santa Clara
Target 3265,1775 E Bayshore Rd,East Palo Alto,-122.1373,37.458858,Santa Clara
SAFEWAY  1476,1300 W San Carlos St,San Jose,-121.91166,37.323483,Santa Clara
SAFEWAY  1505,905 1st St,Gilroy,-121.5891,37.013607,Santa Clara
Madina Halal Market,2268 Senter Rd,San Jose,-121.85008,37.310417,Santa Clara
Lucky 774,234 Saratoga Ave,Santa Clara,-121.96555,37.328583,Santa Clara
"Rica Panaderia, Inc. 3",1663 Tully Rd,San Jose,-121.82717,37.321632,Santa Clara
Chavez Supermarket,2327 McKee Rd,San Jose,-121.84921,37.366058,Santa Clara
Mabury Market,788 N King Rd,San Jose,-121.86907,37.366562,Santa Clara
EARLS BOTTLE SHOP,299 S Capitol Ave,San Jose,-121.8325,37.358555,Santa Clara
Halal Market,583 Saratoga Ave,Santa Clara,-121.95475,37.341194,Santa Clara
Lucky 763,844 Blossom Hill Rd,San Jose,-121.8568,37.250225,Santa Clara
Maiwand Market Of Santa Clara,2915 El Camino Real,Santa Clara,-121.97947,37.352478,Santa Clara
WALGREENS 2740,3460 El Camino Real,Santa Clara,-121.99217,37.352253,Santa Clara
SAFEWAY  1465,5146 Stevens Creek Blvd,San Jose,-121.99319,37.323013,Santa Clara
Marina Brothers Inc./Marina Grocery,4148 Monterey Hwy,San Jose,-121.83511,37.278095,Santa Clara
WALGREENS 02957,1660 Winchester Blvd,Campbell,-121.94987,37.293072,Santa Clara
Diridon Market,98 Sunol St,San Jose,-121.90619,37.329082,Santa Clara
99 RANCH MARKET 61,1688 Hostetter Rd,San Jose,-121.88394,37.387691,Santa Clara
"NMSO, Inc. 68202",1598 Alum Rock Ave,San Jose,-121.85917,37.351036,Santa Clara
"NMSO, Inc. 68204",2790 Story Rd,San Jose,-121.82458,37.352386,Santa Clara
Rotten Robbie 42,455 E Julian St,San Jose,-121.88464,37.344948,Santa Clara
La Morenita Produce,575 1st St,Gilroy,-121.57967,37.013435,Santa Clara
DOLLARTREE 7810,6741 Camino Arroyo,Gilroy,-121.55002,37.001019,Santa Clara
7 Eleven 23585d 23585D,706 Benton St,Santa Clara,-121.941,37.351692,Santa Clara
Grewal Food & Liquor,517 Mclaughlin Ave,San Jose,-121.86118,37.340286,Santa Clara
King Tully Shell 161,1698 Tully Rd,San Jose,-121.82613,37.322044,Santa Clara
Santana Row Farmers Market,378 Between Olin Ave & Olsen Dr.,San Jose,-121.94872,37.320435,Santa Clara
Walmart Neighborhood Market 3023,4055 Evergreen Village Square,San Jose,-121.77354,37.313759,Santa Clara
7 Eleven 25950A,1002 W Evelyn Ave,Sunnyvale,-122.04517,37.383175,Santa Clara
Target Store T-1927,879 Blossom Hill Rd,San Jose,-121.8614,37.25053,Santa Clara
ECONO LIQUOR & FOODS,3112 McKee Rd,San Jose,-121.83538,37.375217,Santa Clara
SMART & FINAL 327,1265 S Mary Ave,Sunnyvale,-122.05061,37.352428,Santa Clara
LOS CUATES MARKET,1511 S Winchester Blvd,San Jose,-121.94997,37.296577,Santa Clara
Target Store T-2238,3155 Silver Creek Rd,San Jose,-121.81133,37.307522,Santa Clara
ROSE INTERNATIONAL MARKET,1060 Castro St,Mountain View,-122.08472,37.384464,Santa Clara
Russian Cafe & Deli,1712 Winchester Blvd,Campbell,-121.94985,37.292248,Santa Clara
Smart & Final 589,270 E 10th St,Gilroy,-121.56252,37.00119,Santa Clara
DOLLAR TREE 1254,331 N Capitol Ave,San Jose,-121.84389,37.370739,Santa Clara
Habesha Mini Mart,394 Bird Ave,San Jose,-121.89924,37.323505,Santa Clara
RITE AID 5984,6091 Meridian Ave,San Jose,-121.88434,37.229099,Santa Clara
RITE AID 5985,1029 E Capitol Expy,San Jose,-121.82276,37.299416,Santa Clara
RITE AID 5987,3171 Meridian Ave,San Jose,-121.90483,37.268108,Santa Clara
Mi Rancho Supermarket,3840 Monterey Hwy,San Jose,-121.839,37.281898,Santa Clara
Meridian Shell 160,1610 Meridian Ave,San Jose,-121.91352,37.29409,Santa Clara
RITE AID 5972,15920 Los Gatos Blvd,Los Gatos,-121.96232,37.237125,Santa Clara
RITE AID 5976,2620 El Camino Real,Santa Clara,-121.97408,37.352261,Santa Clara
RITE AID 5983,6215 Santa Teresa Blvd,San Jose,-121.80271,37.236954,Santa Clara
7 ELEVEN 21735D,998 Lundy Ave,San Jose,-121.87273,37.373653,Santa Clara
7 ELEVEN 14243C,3777 Lafayette St,Santa Clara,-121.95361,37.387531,Santa Clara
Seafood City Supermarket,3065 McKee Rd,San Jose,-121.83668,37.374424,Santa Clara
99 Cents Only Store 224,260 E 10th St,Gilroy,-121.56282,37.001133,Santa Clara
Ernies Liquor,2808 S White Rd,San Jose,-121.79668,37.324039,Santa Clara
Target Store T-2088,533 Coleman Ave,San Jose,-121.90545,37.340714,Santa Clara
MI RANCHO CARNICERIA,1383 Kooser Rd,San Jose,-121.88889,37.246197,Santa Clara
Nob Hill 634,1250 Grant Rd,Mountain View,-122.0752,37.37775,Santa Clara
Target Store T-0324,1811 Hillsdale Ave,San Jose,-121.91773,37.263229,Santa Clara
RITE AID 5975,16000 Monterey St,Morgan Hill,-121.6429,37.113049,Santa Clara
7-Eleven 23879B,1496 N Milpitas Blvd,Milpitas,-121.9103,37.452343,Santa Clara
EL RICO PAN BAKERY,231 Willow St,San Jose,-121.88287,37.318619,Santa Clara
The Market At Edgewood,2170 W Bayshore Rd,East Palo Alto,-122.14575,37.462952,Santa Clara
El Sol Market,705 N 13th St,San Jose,-121.88821,37.355553,Santa Clara
RITE AID 5886,2310 Homestead Rd,Los Altos,-122.06747,37.337677,Santa Clara
RITE AID 5967,20580 Homestead Rd,Cupertino,-122.03344,37.337524,Santa Clara
RITE AID 5988,1550 Hamilton Ave,San Jose,-121.91189,37.294403,Santa Clara
RITE AID 5991,3055 McKee Rd,San Jose,-121.83698,37.374214,Santa Clara
RITE AID 5992,1030 S White Rd,San Jose,-121.82056,37.3578,Santa Clara
RITE AID 5993,1333 S Winchester Blvd,San Jose,-121.94999,37.300133,Santa Clara
Felipe's Market,1101 W El Camino Real,Sunnyvale,-122.0526,37.372906,Santa Clara
CHAVEZ SUPERMARKET,666 N Fair Oaks Ave,Sunnyvale,-122.01455,37.39024,Santa Clara
Fairground Shell 42,2180 Monterey Hwy,San Jose,-121.8614,37.304001,Santa Clara
Queen Fresh Fruits,1111 Story Rd,San Jose,-121.85452,37.33234,Santa Clara
Market Day At Shires Memorial Center,180 N 4th St,San Jose,-121.88933,37.340237,Santa Clara
"Nmso, Inc. 68203",1365 Kooser Rd,San Jose,-121.88805,37.245979,Santa Clara
Meridian Chevron 96336,900 Meridian Ave,San Jose,-121.91353,37.310562,Santa Clara
L&F FISH MARKET,1448 E Santa Clara St,San Jose,-121.86256,37.349445,Santa Clara
7-Eleven 14269A,350 N White Rd,San Jose,-121.83602,37.375736,Santa Clara
WALGREENS 02081,1760 Story Rd,San Jose,-121.84165,37.340786,Santa Clara
GREWAL FOOD & LIQUOR,1711 McLaughlin Ave,San Jose,-121.84651,37.325378,Santa Clara
Dollar Tree 2785,16975 Monterey St,Morgan Hill,-121.64987,37.124863,Santa Clara
SANTA FE FOODS,860 S White Rd,San Jose,-121.82172,37.359047,Santa Clara
HILLSDALE MARKET & LIQUORS,3100 Monterey Hwy,San Jose,-121.84493,37.287483,Santa Clara
Almaden Market,5965 Almaden Expy,San Jose,-121.87277,37.235096,Santa Clara
7 ELEVEN 16189 D,1201 Wildwood Ave,Sunnyvale,-121.99464,37.392044,Santa Clara
7-Eleven 14324G,1905 Latham St,Mountain View,-122.09608,37.39447,Santa Clara
La Sonorense Bakery,163 Willow St,San Jose,-121.88159,37.319317,Santa Clara
Gavilan Market,8110 Westwood Dr,Gilroy,-121.5937,37.014469,Santa Clara
Southgate Liquors,445F Blossom Hill Rd,San Jose,-121.82999,37.251446,Santa Clara
Trader Joe's 202,17035 Laurel Rd,Morgan Hill,-121.63822,37.130856,Santa Clara
Snehas Gifts And Wine,1175 E Homestead Rd,Sunnyvale,-121.99703,37.337887,Santa Clara
Whole Foods Market 10267,20955 Stevens Creek Blvd,Cupertino,-122.03974,37.322987,Santa Clara
Whole Foods Market 10155,4800 El Camino Real,Los Altos,-122.10997,37.399204,Santa Clara
Delgadillos Produce & Nuts,1590 Berryessa Rd,San Jose,-121.87971,37.369175,Santa Clara
Target Store T-0323,20745 Stevens Creek Blvd,Cupertino,-122.03567,37.322998,Santa Clara
LAS PALMAS MERCADO Y CARNICERIA,1080 Saratoga Ave,San Jose,-121.97826,37.305824,Santa Clara
DOLLAR TREE 3203,150 N San Tomas Aquino Rd,Campbell,-121.97653,37.288227,Santa Clara
Sidhu Market,801 Locust St,San Jose,-121.88663,37.321091,Santa Clara
CVS Pharmacy 9498,1800 Saratoga Ave,San Jose,-121.99411,37.289722,Santa Clara
7 ELEVEN 16889G,1591 Flickinger Ave,San Jose,-121.87894,37.390717,Santa Clara
Target Store T-2252,1061 Cochrane Rd,Morgan Hill,-121.64971,37.154881,Santa Clara
San Antonio Market 8,202 S 22nd St,San Jose,-121.86643,37.34288,Santa Clara
Walmart Neighborhood Market 4174,1450 Monterey Hwy,San Jose,-121.87145,37.316223,Santa Clara
7 Eleven 14256C,1173 Mclaughlin Ave,San Jose,-121.85292,37.331863,Santa Clara
6 To Late Monterey,2784 Monterey Road,San Jose,-121.85027,37.292671,Santa Clara
Maldonado Produce Lot  218,1590 Berryessa Road,San Jose,-121.87958,37.36916,Santa Clara
PAL MARKET,2398 University Ave,East Palo Alto,-122.13942,37.471428,Santa Clara
7 Eleven 2366 24271C,2800 Benton St,Santa Clara,-121.97812,37.346539,Santa Clara
QUIK & SAVE,5245 Roeder Rd,San Jose,-121.81001,37.261333,Santa Clara
TROPICANA FOODS,1630 Story Rd,San Jose,-121.84481,37.338646,Santa Clara
Stop and Buy,1601 Tully Rd,San Jose,-121.82879,37.320522,Santa Clara
Manila Oriental Market,2812 S White Rd,San Jose,-121.79662,37.32386,Santa Clara
ABES LIQUOR & MARKET,1939 Alum Rock Ave,San Jose,-121.85093,37.355057,Santa Clara
Safeway 1879,551 N Calaveras Blvd,Milpitas,-121.89593,37.433167,Santa Clara
Shop N Go,29 S Jackson Ave,San Jose,-121.84301,37.357948,Santa Clara
Union Market,750 S Almaden Ave,San Jose,-121.88525,37.32304,Santa Clara
7 Eleven 36090A,298 N Capitol Ave,San Jose,-121.84255,37.369843,Santa Clara
Mexico Bakery Inc. 3,1560 Alum Rock Ave,San Jose,-121.85963,37.350803,Santa Clara
7 Eleven 29243E,848 E Evelyn Ave,Sunnyvale,-122.01414,37.370564,Santa Clara
India Cash And Carry,1032 E El Camino Real,Sunnyvale,-122.00589,37.352093,Santa Clara
Target Store T-2281,2161 Monterey Rd,San Jose,-121.86233,37.304543,Santa Clara
Chevron 1505,1589 S Bascom Ave,Campbell,-121.93183,37.29475,Santa Clara
Las Americas Bakery 2,7435 Monterey St,Gilroy,-121.56893,37.007271,Santa Clara
Shop & Save Market,365 Bird Ave,San Jose,-121.89988,37.323982,Santa Clara
7 Eleven 2367-14218a,3111 Payne Ave,San Jose,-121.9508,37.301579,Santa Clara
Smart & Final 779,401 Jacklin Rd,Milpitas,-121.90223,37.44651,Santa Clara
99 Ranch Market 72,1350 Grant Rd,Mountain View,-122.0752,37.377758,Santa Clara
Charlies Market,1441 E Bayshore Rd,East Palo Alto,-122.14483,37.463184,Santa Clara
7-Eleven 17733D,2105 Scott Blvd,Santa Clara,-121.95953,37.361382,Santa Clara
7-ELEVEN 20521E,602 Tully Rd,San Jose,-121.84731,37.308044,Santa Clara
Vineyard Chevron 1,15865 Monterey Rd,Morgan Hill,-121.64029,37.110706,Santa Clara
Grocery Outlet Of Gilroy,333 E 10th St,Gilroy,-121.56179,37.001488,Santa Clara
Whole Foods Market 10005,774 Emerson St,Palo Alto,-122.15948,37.442596,Santa Clara
Creekside Farmers' Market,10455 Miller Ave,Cupertino,-122.01336,37.316494,Santa Clara
Trader Joes 232,7250 Bollinger Rd,San Jose,-122.03139,37.312183,Santa Clara
H Mart De Anza. Llc,1179 S de Anza Blvd,San Jose,-122.03238,37.303894,Santa Clara
Dollar Tree 2083,5540 Snell Ave,San Jose,-121.83073,37.253262,Santa Clara
Tully Market,1709 Tully Rd,San Jose,-121.82506,37.323093,Santa Clara
Tej Papa Murphy Inc CA005,1375 Blossom Hill Rd,San Jose,-121.88917,37.2439,Santa Clara
T & L Market,451 E Julian St,San Jose,-121.88468,37.344955,Santa Clara
Foothill Produce,2310 Homestead Rd,Los Altos,-122.06747,37.337677,Santa Clara
WALGREENS 5219,5 S 1st St,San Jose,-121.8905,37.33596,Santa Clara
WALGREENS 840,1334 Saratoga Ave,San Jose,-121.98204,37.300381,Santa Clara
Walgreens 5454,1661 McKee Rd,San Jose,-121.8614,37.357666,Santa Clara
Mckee Seafood Supermarket,2331 Mckee Rd,San Jose,-121.84916,37.366089,Santa Clara
Kwikee Mart,2044 McKee Rd,San Jose,-121.85538,37.361534,Santa Clara
CVS Pharmacy 9684,2630 W El Camino Real,Mountain View,-122.11464,37.401939,Santa Clara
CVS Pharmacy 9810,1685 Tully Rd,San Jose,-121.82625,37.322285,Santa Clara
SAFEWAY  1245,15543 Union Ave,Los Gatos,-121.93129,37.242519,Santa Clara
Lucky 761,200 El Paseo de Saratoga,San Jose,-121.99387,37.288292,Santa Clara
Emit Mini Market,1492 Almaden Rd,San Jose,-121.87836,37.312466,Santa Clara
LION FOOD CENTER,1838 N Milpitas Blvd,Milpitas,-121.91129,37.456821,Santa Clara
HANKOOK SUPER MARKET,1092 E El Camino Real,Sunnyvale,-122.00225,37.352142,Santa Clara
Grocery Outlet Of Santa Teresa 410,7076 Santa Teresa Blvd,San Jose,-121.7748,37.225887,Santa Clara
Trader Joes 0212,635 Coleman Ave,San Jose,-121.90915,37.341274,Santa Clara
Patel Brothers of Santa Clara,2039 El Camino Real,Santa Clara,-121.96049,37.352497,Santa Clara
M&m Liquor,7901 Westwood Dr,Gilroy,-121.59384,37.012474,Santa Clara
MARINA FOOD #2,10122 Bandley Dr,Cupertino,-122.03457,37.32431,Santa Clara
Mediterranean Food Market,398 Saratoga Ave,San Jose,-121.97102,37.321716,Santa Clara
SAFEWAY 1108,1750 Miramonte Ave,Mountain View,-122.08711,37.372292,Santa Clara
CVS Pharmacy 9700,576 E El Camino Real,Sunnyvale,-122.02643,37.362816,Santa Clara
CVS Pharmacy 9944,3081 Stevens Creek Blvd,Santa Clara,-121.94955,37.323395,Santa Clara
CVS Pharmacy 9987,1798 Miramonte Ave,Mountain View,-122.08711,37.371601,Santa Clara
Lion Market,1031 E Capitol Expressway,San Jose,-121.82321,37.299156,Santa Clara
BARAKA HALAL MARKET,952 W El Camino Real,Sunnyvale,-122.04694,37.371414,Santa Clara
Grocery Outlet Of Santa Clara,3520 Homestead Rd,Santa Clara,-121.99366,37.337803,Santa Clara
EZ Market Inc 2,2644 Cropley Ave,San Jose,-121.88123,37.403725,Santa Clara
Paul's Market,412 E Empire St,San Jose,-121.88828,37.348927,Santa Clara
Lucky 759,129 Bernal Rd,San Jose,-121.7742,37.229923,Santa Clara
Dollar Tree 1270,5536 Monterey Hwy,San Jose,-121.79869,37.253624,Santa Clara
Safeway 3403,580 N Rengstorff Ave,Mountain View,-122.09288,37.410957,Santa Clara
Bonfare Market 18,1233 Jacklin Rd,Milpitas,-121.88817,37.447659,Santa Clara
Dollar Tree 3853,916 Story Rd,San Jose,-121.85674,37.330517,Santa Clara
Rotten Robbie 32,1061 Lincoln Ave,San Jose,-121.90231,37.310154,Santa Clara
Dollar Tree 3725,588 E El Camino Real,Sunnyvale,-122.026,37.362419,Santa Clara
DOLLAR TREE 1236,1350 S PARK VICTORIA,MILPITAS,-121.87514,37.41658,Santa Clara
Lucky 758,565 W Capitol Expy,San Jose,-121.85356,37.274677,Santa Clara
Pars Kosher Market,3978 S Bascom Ave,San Jose,-121.94784,37.258591,Santa Clara
SHAN MARKET,1250 E Julian St,San Jose,-121.8699,37.351837,Santa Clara
7-Eleven 14241G,3565 Benton St,Santa Clara,-121.99435,37.345387,Santa Clara
CVS Pharmacy 9856,1165 W El Camino Real,Sunnyvale,-122.05488,37.373592,Santa Clara
CVS Pharmacy 9995,1405 Foxworthy Ave,San Jose,-121.89098,37.275211,Santa Clara
CVS Pharmacy 9793,2700 Homestead Rd,Santa Clara,-121.97422,37.339115,Santa Clara
Rotten Robbie 3,370 E Hamilton Ave,Campbell,-121.94323,37.294243,Santa Clara
Big Lots 4261,1832 Hillsdale Ave,San Jose,-121.91952,37.262314,Santa Clara
Dollar Tree 3764,1178 N Capitol Ave,San Jose,-121.86175,37.387932,Santa Clara
Dollar Tree 3823,14406 Union Ave,San Jose,-121.93129,37.258701,Santa Clara
Speedway 1493,921 W Hamilton Ave,Campbell,-121.96567,37.294266,Santa Clara
CVS Pharmacy 9161,45 N Milpitas Blvd,Milpitas,-121.9006,37.434185,Santa Clara
Gbg Llc,3777 Williams Rd,San Jose,-121.96713,37.308529,Santa Clara
Dollar Tree 3185,5041 Almaden Expy,San Jose,-121.87625,37.257713,Santa Clara
Dollar Tree 2274,1260A 1st St,Gilroy,-121.59481,37.013481,Santa Clara
Charlee's Liquor Market,2905 S Bascom Ave,Campbell,-121.93862,37.269142,Santa Clara
CVS Pharmacy 9229,3220 S White Rd,San Jose,-121.793,37.31636,Santa Clara
CVS Pharmacy 9337,6910 Almaden Expy,San Jose,-121.84884,37.21217,Santa Clara
7-Eleven 15766D,90 Stern Ave,Cupertino,-122.00334,37.319824,Santa Clara
7-Eleven 14211 B,280 E Main St,Los Gatos,-121.97509,37.221054,Santa Clara
7-Eleven 14257 B,2032 Story Rd,San Jose,-121.83694,37.343967,Santa Clara
7-Eleven 14306 D,295 W Main Ave,Morgan Hill,-121.65984,37.127407,Santa Clara
CVS Pharmacy 7774,850 California St,Mountain View,-122.0813,37.391697,Santa Clara
"Country Time Market, LLC",2200 University Ave,East Palo Alto,-122.1415,37.465874,Santa Clara
Gp Bottle Llc,2364 Pruneridge Ave,Santa Clara,-121.96256,37.329914,Santa Clara
Yawh Mini Mart,367 Meridian Ave,San Jose,-121.91378,37.32177,Santa Clara
Sprouts Farmers Market 283,2060 El Camino Real,Santa Clara,-121.96143,37.352283,Santa Clara
One Stop Liquor,801 Lincoln Ave,San Jose,-121.90597,37.314823,Santa Clara
Barron Park Market,3876 El Camino Real,Palo Alto,-122.13059,37.416985,Santa Clara
Gbja Llc,2561 Newhall St,Santa Clara,-121.95105,37.337505,Santa Clara
CVS Pharmacy 3029,1097 Leigh Ave,San Jose,-121.92249,37.303959,Santa Clara
Target Store T-1426,450 N Capitol Ave,San Jose,-121.84623,37.373531,Santa Clara
CVS Pharmacy 9895,100 N San Tomas Aquino Rd,Campbell,-121.97659,37.28751,Santa Clara
CVS Pharmacy 9808,470 Blossom Hill Rd,San Jose,-121.8337,37.251152,Santa Clara
99 RANCH MARKET 66,338 Barber Ln,Milpitas,-121.91777,37.421585,Santa Clara
WALGREENS 3344,4170 El Camino Real,Palo Alto,-122.12459,37.411781,Santa Clara
Walmart Store 2280,600 Showers Dr,Mountain View,-122.10812,37.401127,Santa Clara
7-ELEVEN #16799 A,162 W 10th St,Gilroy,-121.5673,36.999863,Santa Clara
7-Eleven 14290D,1421 Branham Ln,San Jose,-121.89112,37.259026,Santa Clara
SETAREH MARKET,4644 Meridian Ave,San Jose,-121.89867,37.255917,Santa Clara
MAXIM MARKET,1930 Aborn Rd,San Jose,-121.81125,37.310844,Santa Clara
R & D Liquor,662 Willow St,San Jose,-121.89273,37.312817,Santa Clara
Big Lots 4271,1581 W Campbell Ave,Campbell,-121.97782,37.286057,Santa Clara
7-Eleven 14246 G,497 Kiely Blvd,San Jose,-121.97081,37.320122,Santa Clara
La Estrellita Market,2381 University Ave,East Palo Alto,-122.13992,37.470959,Santa Clara
Big Lots 4282,200 Serra Way,Milpitas,-121.90927,37.427605,Santa Clara
Dollar Tree 6337,7128 Santa Teresa Blvd,San Jose,-121.77399,37.225517,Santa Clara
Mini Mart & Jr. Deli,2604 Alum Rock Ave,San Jose,-121.83784,37.361031,Santa Clara
7-Eleven 22795 B,2805 S White Rd,San Jose,-121.79703,37.324787,Santa Clara
7-Eleven 14221 D,657 N Santa Cruz Ave,Los Gatos,-121.97775,37.235737,Santa Clara
K D Liquor,8401 Church,Gilroy,-121.5773,37.019699,Santa Clara
Save Food & Liquor,1191 El Camino Real,Santa Clara,-121.94939,37.353756,Santa Clara
SAFEWAY  997,1663 Branham Ln,San Jose,-121.90734,37.251987,Santa Clara
CVS Pharmacy 9198,1675 Hollenbeck Ave,Sunnyvale,-122.04146,37.338383,Santa Clara
7-Eleven 14298D,2223 S Bascom Ave,Campbell,-121.93179,37.282951,Santa Clara
CVS Pharmacy 9897,3074 Story Rd,San Jose,-121.81953,37.35585,Santa Clara
Princeton Plaza Cfm,1375 Blossom Hill Road,San Jose,-121.88917,37.2439,Santa Clara
CVS Pharmacy 9346,1041 El Monte Ave,Mountain View,-122.09583,37.390724,Santa Clara
CVS Pharmacy 9498,5285 PROSPECT RD,SAN JOSE,-121.99478,37.292213,Santa Clara
CVS Pharmacy 9805,1720 S Bascom Ave,Campbell,-121.93154,37.292259,Santa Clara
Lucky 7 Supermarket,1625 Mckee Rd,San Jose,-121.86309,37.35656,Santa Clara
CVS Pharmacy 9534,4850 San Felipe Rd,San Jose,-121.77163,37.299831,Santa Clara
Carniceria El Corral,259 E Maude Ave,Sunnyvale,-122.02403,37.387577,Santa Clara
Walmart SuperCenter 5766,170 Cochrane Plz,Morgan Hill,-121.65504,37.150887,Santa Clara
7-Eleven 14230D,1412 Saratoga Ave,San Jose,-121.98819,37.294918,Santa Clara
CVS Pharmacy 9921,2069 Camden Ave,San Jose,-121.93485,37.262108,Santa Clara
CVS Pharmacy 3935,855 El Camino Real,Palo Alto,-122.16116,37.438381,Santa Clara
CVS Pharmacy 2294,821 The Alameda,San Jose,-121.90661,37.331779,Santa Clara
CVS Pharmacy 9559,1285 Lincoln Ave,San Jose,-121.89867,37.30508,Santa Clara
7-eleven 17195,1590 Franklin St,Santa Clara,-121.95132,37.347332,Santa Clara
7-Eleven 14301E,691 1st St,Gilroy,-121.58146,37.013458,Santa Clara
CVS Pharmacy 9257,5170 Moorpark Ave,San Jose,-121.99433,37.309471,Santa Clara
CVS Pharmacy 9896,4550 Meridian Ave,San Jose,-121.89925,37.25668,Santa Clara
Cambrian Park Plaza Cfm,14900 Camden Ave,San Jose,-121.93044,37.26162,Santa Clara
CVS Pharmacy 9342,16995 Walnut Grove Dr,Morgan Hill,-121.63778,37.129234,Santa Clara
Target Store T-1427,1600 Saratoga Ave,San Jose,-121.99089,37.292599,Santa Clara
Safeway 2934,100 S 2nd St,San Jose,-121.88805,37.334831,Santa Clara
CVS Pharmacy 9834,12940 Saratoga Sunnyvale Rd,Saratoga,-122.03225,37.280663,Santa Clara
7 Eleven 14247D,262 W Sunnyoaks Ave,Campbell,-121.95485,37.272182,Santa Clara
7-Eleven 33660A,1380 Pear Ave,Mountain View,-122.07726,37.415554,Santa Clara
CVS Pharmacy 9982,750 Blossom Hill Rd,Los Gatos,-121.96142,37.235374,Santa Clara
CVS Pharmacy 9894,10455 S de Anza Blvd,Cupertino,-122.03245,37.316425,Santa Clara
99 Cents Only Stores 270,1915 W San Carlos St,San Jose,-121.92929,37.323448,Santa Clara
Mi Rancho Market,494 Auzerais Ave,San Jose,-121.89703,37.324516,Santa Clara
Sungarden Chevron 5862,1418 Monterey Hwy,San Jose,-121.87345,37.316078,Santa Clara
"H Mart San Jose, Llc",1710 Oakland Rd,San Jose,-121.8959,37.383057,Santa Clara
Oakmont Produce Market #2,810 W Hamilton Ave,Campbell,-121.96359,37.29414,Santa Clara
Walgreens 06585,1570 W Campbell Ave,Campbell,-121.97774,37.286003,Santa Clara
Walgreens 07079,1615 Meridian Ave,San Jose,-121.91358,37.29385,Santa Clara
Walgreens 03380,1306 S Mary Ave,Sunnyvale,-122.05051,37.351379,Santa Clara
Walgreens 04416,20011 Bollinger Rd,Cupertino,-122.0234,37.309959,Santa Clara
CVS Pharmacy 9901,1125 Branham Ln,San Jose,-121.87842,37.262535,Santa Clara
CVS Pharmacy 9984,2701 Middlefield Rd,Palo Alto,-122.12926,37.433414,Santa Clara
Target Store T-1851,6705 Camino Arroyo,Gilroy,-121.54904,36.999794,Santa Clara
CVS Pharmacy 9262,222 Saratoga Ave,Santa Clara,-121.96571,37.328396,Santa Clara
Target Store T-1984,1750 Story Rd,San Jose,-121.84145,37.340927,Santa Clara
Target Store T-2584,298 W McKinley Ave,Sunnyvale,-122.03208,37.374439,Santa Clara
Walgreens 06869,2605 Middlefield Rd,Palo Alto,-122.13066,37.434296,Santa Clara
Primetime Nutrition 517,2001 Story Rd,San Jose,-121.83762,37.343754,Santa Clara
Stop N Save 124,12304 Saratoga Sunnyvale Rd,Saratoga,-122.03229,37.289219,Santa Clara
Walgreens 07088,303 2nd St,Los Altos,-122.11584,37.377357,Santa Clara
COLLEGE MARKET,502 S 6th St,San Jose,-121.87946,37.330978,Santa Clara
CVS Pharmacy 9395,525 W Capitol Expy,San Jose,-121.85236,37.274677,Santa Clara
CVS Pharmacy 3061,3475 McKee Rd,San Jose,-121.82713,37.380898,Santa Clara
7-Eleven 14259B,1674 Foxworthy Ave,San Jose,-121.90743,37.270264,Santa Clara
Walgreens 07326,423 N Santa Cruz Ave,Los Gatos,-121.98055,37.229946,Santa Clara
Walgreens 04516,745 E Dunne Ave,Morgan Hill,-121.63887,37.129566,Santa Clara
CVS Pharmacy 9915,352 University Ave,Palo Alto,-122.16082,37.446667,Santa Clara
CVS Pharmacy 9945,825 1st St,Gilroy,-121.58766,37.013577,Santa Clara
CVS Pharmacy 9812,2514 Berryessa Rd,San Jose,-121.85956,37.38728,Santa Clara
Walgreens 09782,780 E El Camino Real,Sunnyvale,-122.01923,37.356831,Santa Clara
Lion Liquor,2415 Alvin Ave,San Jose,-121.82799,37.319481,Santa Clara
Dollar Tree 7395,3251 S White Rd,San Jose,-121.79287,37.315907,Santa Clara
24 market,2010 Story Rd,San Jose,-121.83717,37.343807,Santa Clara
Chavez Supermarket 7,2670 Monterey Hwy,San Jose,-121.8526,37.295101,Santa Clara
Target Store T-0322,555 Showers Dr,Mountain View,-122.1075,37.401653,Santa Clara
Target Store T-0626,2155 Morrill Ave,San Jose,-121.87468,37.414757,Santa Clara
Fw Liquor And Grocery,3127 Williamsburg Dr,San Jose,-121.95101,37.29781,Santa Clara
Park & Hester Market,1451 Park Ave,San Jose,-121.91921,37.329906,Santa Clara
Walgreens 09516,770 1st St,Gilroy,-121.58497,37.013443,Santa Clara
HALAL MEATS,1538 S de Anza Blvd,San Jose,-122.0321,37.296165,Santa Clara
7 Eleven Store 2367 17496G,452 E Santa Clara St,San Jose,-121.88071,37.340847,Santa Clara
Bon Fare Market 12,2907 The Villages Pkwy,San Jose,-121.76044,37.290836,Santa Clara
Lucky 773,3705 El Camino Real,Santa Clara,-121.9979,37.352428,Santa Clara
S & S MARKET,502 S 10th St,San Jose,-121.87527,37.333057,Santa Clara
Monterey Mini Mart,2951 Monterey Hwy,San Jose,-121.84792,37.29002,Santa Clara
Big Lots 4393,3735 El Camino Real,Santa Clara,-121.99884,37.35239,Santa Clara
Alum Rock Farmers' Market,57 N White Rd,San Jose,-121.82957,37.367474,Santa Clara
7-Eleven 14248 C,250 W Maude Ave,Sunnyvale,-122.02835,37.388935,Santa Clara
7-Eleven 14240D,15 S Abbott Ave,Milpitas,-121.91415,37.428516,Santa Clara
7-Eleven 14270 B,2440 Almaden Expwy,San Jose,-121.87997,37.289761,Santa Clara
7-Eleven 14300 E,284 S 11th St,San Jose,-121.87669,37.336788,Santa Clara
7-Eleven 17674,1595 Branham Ln,San Jose,-121.9025,37.253338,Santa Clara
STOP N SAVE 110,2297 McKee Rd,San Jose,-121.85039,37.365269,Santa Clara
Evergreen Shell 181,3290 S White Rd,San Jose,-121.79173,37.314262,Santa Clara
Zhengpei Petrol Gilroy Corporation 83139,400 Leavesley Rd,Gilroy,-121.56874,37.021496,Santa Clara
Best Liquor,1055 Tully Rd,San Jose,-121.838,37.314358,Santa Clara
7 Eleven 2710 37953A,890 Coleman Ave,San Jose,-121.91481,37.345963,Santa Clara
Marina Grocery,25 N Milpitas Blvd,Milpitas,-121.90003,37.433323,Santa Clara
Food Maxx 491,3002 Story Rd,San Jose,-121.82008,37.355518,Santa Clara
JERRYS MARKET,1491 S Main St,Milpitas,-121.9026,37.409225,Santa Clara
Charlies Liquor Market,166 W 10th St,Gilroy,-121.56773,36.999699,Santa Clara
Hanas Bottle Shop,3149 El Camino Real,Santa Clara,-121.98357,37.352505,Santa Clara
Primetime Nutrition 533,301 N Jackson,San Jose,-121.85101,37.366001,Santa Clara
Primetime Nutrition 540,4100 Monterey Hwy,San Jose,-121.83575,37.278664,Santa Clara
7 Eleven 2367-37730a 37730A,4199 Hamilton Ave,San Jose,-121.97621,37.293827,Santa Clara
7-Eleven 25561,617 Blossom Hill Rd,San Jose,-121.84253,37.250736,Santa Clara
Capital Shell 163,1601 N Capitol Ave,San Jose,-121.87216,37.396763,Santa Clara
Billa Discount Liquor # 1 1,1068 Story Road,San Jose,-121.8549,37.331718,Santa Clara
Dollar Tree 3238,2425 Winchester Blvd,Campbell,-121.94985,37.27898,Santa Clara
Costco Wholesale 0760,7251 Camino Arroyo,Gilroy,-121.5545,37.008648,Santa Clara
Costco Wholesale 1004,1709 Automation Pkwy,San Jose,-121.883,37.38879,Santa Clara
New India Bazar,2213 El Camino Real,Santa Clara,-121.96334,37.352501,Santa Clara
Dollar Tree 4293,251 Ranch Dr,Milpitas,-121.91931,37.430408,Santa Clara
Costco Wholesale 0129,1601 Coleman Ave,Santa Clara,-121.93729,37.357666,Santa Clara
Costco Wholesale 0143,1000 N Rengstorff Ave,Mountain View,-122.09348,37.419662,Santa Clara
Costco Wholesale 0148,2201 Senter Rd,San Jose,-121.85064,37.310608,Santa Clara
Costco Wholesale 0423,150 Lawrence Station Rd,Sunnyvale,-121.99603,37.372513,Santa Clara
Costco Wholesale 0470,5301 Almaden Expy,San Jose,-121.87589,37.254242,Santa Clara
Super Liquor & Food,3255 Sierra Rd,San Jose,-121.84821,37.399277,Santa Clara
7-Eleven 26763 C,834 E Fremont Ave,Sunnyvale,-122.01653,37.352051,Santa Clara
7-Eleven 14278 F,14700 Camden Ave,San Jose,-121.92857,37.261707,Santa Clara
7-Eleven 16269A,4625 Albany Dr,San Jose,-121.9854,37.321342,Santa Clara
7-Eleven 15429 E,276 N Whisman Rd,Mountain View,-122.05981,37.396606,Santa Clara
7-Eleven 14219B,615 Old San Francisco Rd,Sunnyvale,-122.02221,37.367199,Santa Clara
7-Eleven #27244 E,1039 Sunnyvale Saratoga Rd,Sunnyvale,-122.03245,37.35857,Santa Clara
7-Eleven 22914 F,3110 Senter Rd,San Jose,-121.83392,37.294121,Santa Clara
7-Eleven 14292 E,4270 Senter Rd,San Jose,-121.82339,37.2803,Santa Clara
Selam Market,2294 S Bascom Ave,Campbell,-121.93152,37.281689,Santa Clara
Quick Shop Market,395 N Fair Oaks Ave,Sunnyvale,-122.01795,37.383202,Santa Clara
Cupertino Market,19725 Stevens Creek Blvd,Cupertino,-122.01795,37.32304,Santa Clara
Chevron 2217,7110 Camino Arroyo,Gilroy,-121.55236,37.006554,Santa Clara
Los Gatos Farmers Market,1 N. Santa Cruz Ave & Main St,Los Gatos,-121.98388,37.222542,Santa Clara
7-Eleven 16136 G,2065 White Oak Ln,Santa Clara,-121.99664,37.360401,Santa Clara
7-Eleven 25480 B,5148 Moorpark Ave,San Jose,-121.99319,37.309471,Santa Clara
PAUL'S QUICK STOP,709 Stockton Ave,San Jose,-121.91367,37.34082,Santa Clara
Wolfe India Bazar,854 Old San Francisco Rd,Sunnyvale,-122.01587,37.366543,Santa Clara
Walgreens 15246,2140 El Camino Real,Santa Clara,-121.9621,37.352257,Santa Clara
Safeway 2150,1489 Bird Ave,San Jose,-121.88977,37.305843,Santa Clara
Liquor And Food,1228 S Wolfe Rd,Sunnyvale,-122.01408,37.353951,Santa Clara
New India Bazaar,1340 S Mary Ave,Sunnyvale,-122.05048,37.350513,Santa Clara
International Gourmet Foods,2052 Curtner Ave,San Jose,-121.93364,37.272503,Santa Clara
Saratoga Farmers Market,14000 Fruitvale Ave,Saratoga,-122.01369,37.265785,Santa Clara
Campbell Liquors & Deli,479 E Campbell Ave,Campbell,-121.94123,37.287102,Santa Clara
Seafood City Supermarket,1535 Landess Ave,Milpitas,-121.8764,37.415718,Santa Clara
CVS Pharmacy 3938,1496 Pollard Rd,Los Gatos,-121.98404,37.264568,Santa Clara
Trader Joes 207,855 El Camino Real,Palo Alto,-122.16116,37.438381,Santa Clara
Paul's  Liquor & Market 8,9305 Monterey Rd,Gilroy,-121.5813,37.031937,Santa Clara
Walgreens 13596,300 University Ave,Palo Alto,-122.16154,37.445889,Santa Clara
Cardenas 222,1070 S White Rd,San Jose,-121.8195,37.35656,Santa Clara
Desi India Bazaar,1584 Branham Ln,San Jose,-121.90189,37.253506,Santa Clara
7-Eleven Store 29507E,1040 Piedmont Rd,San Jose,-121.84335,37.392456,Santa Clara
7-eleven 14320 F,21220 Homestead Rd,Cupertino,-122.045,37.337482,Santa Clara
Rais India Bazar,124 Blossom Hill Rd,San Jose,-121.80664,37.252518,Santa Clara
Cardenas 215,1731 E Bayshore Rd,East Palo Alto,-122.1379,37.459408,Santa Clara
7-Eleven 14263D,188 N 6th St,San Jose,-121.88728,37.341457,Santa Clara
Senter Food,3975 Senter Rd,San Jose,-121.82379,37.283031,Santa Clara
New India Bazar,440 S Main St,Milpitas,-121.90498,37.423519,Santa Clara
Dollar Tree 4547,3024 El Camino Real,Santa Clara,-121.98107,37.352268,Santa Clara
SAFEWAY  1455,840 E Dunne Ave,Morgan Hill,-121.63663,37.130276,Santa Clara
La Plaza Market 2,40 S Rengstorff Ave,Mountain View,-122.09766,37.402843,Santa Clara
Oakridge Farmers Market,925 Blossom Hill Rd,San Jose,-121.86362,37.250519,Santa Clara
NOB HILL FOODS 635,6061 Snell Ave,San Jose,-121.83068,37.237331,Santa Clara
Easy Mart,150 Leavesley Rd,Gilroy,-121.57332,37.019756,Santa Clara
Grocery Outlet Of West San Jose,3140 Williams Rd,San Jose,-121.95187,37.308815,Santa Clara
LA TIENDITA,510 Oconnor St,East Palo Alto,-122.14378,37.460369,Santa Clara
Sprouts Farmers Market 216,111 E El Camino Real,Sunnyvale,-122.03099,37.366882,Santa Clara
Pacheco Pass Chevron 5864,6901 Cameron Blvd,Gilroy,-121.54737,37.003456,Santa Clara
7-Eleven 25834 C,3500 Stevens Creek Blvd,San Jose,-121.95997,37.323223,Santa Clara
Kamal Spice House 1,385 N Capitol Ave,San Jose,-121.84517,37.372059,Santa Clara
Mi Rancho Supermarket,2806 Story Rd,San Jose,-121.82421,37.352688,Santa Clara
7 Eleven Store 39660A,1005 W El Camino Real,Sunnyvale,-122.04904,37.372078,Santa Clara
Paul's Liquor & Market 8,16715a Monterey St,Morgan Hill,-121.64777,37.121277,Santa Clara
Santa Clara Vmc,751 South Bascom Ave.,Santa Clara,-121.93185,37.312866,Santa Clara
Lincoln Liquors,2049 Lincoln Ave,San Jose,-121.89027,37.293571,Santa Clara
East Palo Alto Community Farmers' Market,1885 Bay Rd,East Palo Alto,-122.13241,37.472786,Santa Clara
7 Eleven 2366 18584E,401 Waverley St,Palo Alto,-122.16144,37.447796,Santa Clara
WALGREENS 2384,2680 Union Ave,San Jose,-121.9332,37.273293,Santa Clara
WALGREEN'S 842,350 N Capitol Ave,San Jose,-121.84423,37.37149,Santa Clara
WALGREEN'S 900,2105 Morrill Ave,San Jose,-121.87421,37.413895,Santa Clara
WALGREENS 1179,1795 E Capitol Expy,San Jose,-121.80936,37.30909,Santa Clara
WALGREENS 3754,1399 W San Carlos St,San Jose,-121.91355,37.323547,Santa Clara
WALGREENS 2786,14100 Blossom Hill Rd,Los Gatos,-121.91393,37.236198,Santa Clara
WALGREEN'S 3671,342 W Calaveras Blvd,Milpitas,-121.91174,37.426853,Santa Clara
WALGREEN'S 3445,2799 S White Rd,San Jose,-121.79733,37.325642,Santa Clara
WALGREEN'S 3378,1376 Kooser Rd,San Jose,-121.8886,37.246025,Santa Clara
LOS PRIMOS MEAT MARKET 2,1539 S Winchester Blvd,San Jose,-121.94997,37.296001,Santa Clara
Stop N Save 115,1795 Scott Blvd,Santa Clara,-121.9595,37.355461,Santa Clara
CALIFORNIA STREET MARKET,1595 California St,Mountain View,-122.08941,37.394722,Santa Clara
Arteaga's Food Center (Lincoln),1003 Lincoln Ave,San Jose,-121.90391,37.312283,Santa Clara
LA CANASTA GROCERY,3074 Monterey Hwy,San Jose,-121.84547,37.288071,Santa Clara
Medex Drugs,401 E Santa Clara St,San Jose,-121.88184,37.340366,Santa Clara
Walmart Store 2002,7150 Camino Arroyo,Gilroy,-121.55294,37.007092,Santa Clara
7-Eleven 14302B,4630 Pearl Ave,San Jose,-121.86552,37.264793,Santa Clara
7-Eleven 18039C,1639 Alum Rock Ave,San Jose,-121.85764,37.351837,Santa Clara
7-Eleven 20418C,3861 7 Trees Blvd,San Jose,-121.8332,37.283669,Santa Clara
Cardenas 204,1745 Story Rd,San Jose,-121.84234,37.340584,Santa Clara
C & L Liquor,790 W Hamilton Ave,Campbell,-121.96334,37.294071,Santa Clara
Sun Valley Market,16725 Monterey St,Morgan Hill,-121.64782,37.121357,Santa Clara
Anwar Bazaar & Bakery,2626 Union Ave,San Jose,-121.93339,37.273815,Santa Clara
7 Eleven Store 2367 14276E,1711 Mckee Road,San Jose,-121.86037,37.358475,Santa Clara
Apatzingan Market,901 Oakland Rd,San Jose,-121.89108,37.359531,Santa Clara
Quik Stop Market 9070,5 Stewart Ave,San Jose,-121.82681,37.366047,Santa Clara
Letrieu Circle K 1,398 1st St,Gilroy,-121.57677,37.013336,Santa Clara
MERCADO CALIFORNIA,5302 Monterey Hwy,San Jose,-121.80794,37.259113,Santa Clara
SAFEWAY 0316,179 Branham Ln,San Jose,-121.83308,37.266068,Santa Clara
Alum Rock Market / Mi Ranchito  Produce,2243 Alum Rock Ave,San Jose,-121.84481,37.358028,Santa Clara
Lucky 766,3270 S White Rd,San Jose,-121.79227,37.315178,Santa Clara
99 Ranch Market 79,10425 S De Anza Blvd,Cupertino,-122.03242,37.316792,Santa Clara
J B Liquor,1096 McLaughlin Ave,San Jose,-121.85384,37.333061,Santa Clara
Whole Foods Market 10320,1146 Blossom Hill Rd,San Jose,-121.87742,37.250443,Santa Clara
Namaste Plaza,10 S Abbott Ave,Milpitas,-121.91396,37.428326,Santa Clara
Cherry Liquor & Groceries,1443 Bird Ave,San Jose,-121.89055,37.306568,Santa Clara
South Bay Natural Foods,8120 Westwood Dr,Gilroy,-121.59372,37.014175,Santa Clara
Baystop,1795 McKee Rd,San Jose,-121.85799,37.360115,Santa Clara
Lee Supermarket Inc.,2889 Senter Rd,San Jose,-121.83853,37.298481,Santa Clara
Chevron 1517,825 E Dunne Ave,Morgan Hill,-121.63701,37.130356,Santa Clara
7 Eleven 23846G,550 Keyes St,San Jose,-121.86689,37.325035,Santa Clara
Lion Market 18,1070 Story Rd,San Jose,-121.85413,37.332275,Santa Clara
FRUITDALE LIQUOR & GROCERY,2169 Fruitdale Ave,San Jose,-121.93098,37.310734,Santa Clara
7-Eleven 14253C,2577 S King Rd,San Jose,-121.8231,37.319401,Santa Clara
Safeway 3251,20620 Homestead Rd,Cupertino,-122.03419,37.337521,Santa Clara
Kaiser San Jose,270 International Cir,San Jose,-121.79957,37.240433,Santa Clara
KUMARS ISLAND MARKET,1440 E Santa Clara St,San Jose,-121.8628,37.349335,Santa Clara
7-ELEVEN #16422 D,370 Leavesley Rd,Gilroy,-121.57004,37.021004,Santa Clara
MEL'S MINI MART & LIQUOR,1500 Kiely Blvd,Santa Clara,-121.97768,37.351414,Santa Clara
SAFEWAY  1990,3970 Rivermark Plz,Santa Clara,-121.94728,37.395367,Santa Clara
Grewal Food & Liqour,601 S 10th St,San Jose,-121.87417,37.331413,Santa Clara
LUNARDI'S MARKET 4,4650 Meridian Ave,San Jose,-121.89848,37.25563,Santa Clara
Quik Stop Market 6086,1100 Lucretia Ave,San Jose,-121.85711,37.329884,Santa Clara
TRADER JOE'S 63,5353 Almaden Expressway,San Jose,-121.87567,37.252262,Santa Clara
TRADER JOE'S  62,5269 Prospect Rd,San Jose,-121.99442,37.292175,Santa Clara
Trader Joes 68,316 W El Camino Real,Sunnyvale,-122.03564,37.368706,Santa Clara
TRADER JOE'S  73,1875 S Bascom Ave,Campbell,-121.93182,37.289539,Santa Clara
TRADER JOE'S  81,590 Showers Dr,Mountain View,-122.10804,37.401245,Santa Clara
TRADER JOE'S 127,2310 Homestead Rd,Los Altos,-122.06747,37.337677,Santa Clara
Lion Food Center 6,471 Saratoga Ave,San Jose,-121.97375,37.318832,Santa Clara
Sunnyvale Grocery Outlet 320,1180 N Fair Oaks way,Sunnyvale,-122.01046,37.405128,Santa Clara
"Nmso, Inc. 68117",1370 Camden Ave,Campbell,-121.94439,37.268932,Santa Clara
Carniceria Rodriguez,2398 University Ave,East Palo Alto,-122.13943,37.471443,Santa Clara
Bharat Bazar 3,1165 Reed Ave,Sunnyvale,-121.99715,37.366886,Santa Clara
Galamart,1193 W El Camino Real,Sunnyvale,-122.05538,37.373707,Santa Clara
Jackson Liquors & Food,150 S Jackson Ave,San Jose,-121.84117,37.35619,Santa Clara
Cardenas 203,235 E Julian St,San Jose,-121.88905,37.342857,Santa Clara
Monterey Liquors,1651 Monterey Hwy,San Jose,-121.86995,37.312241,Santa Clara
Mi Jalisco Market,5210 N First St,Alviso,-121.97401,37.425686,Santa Clara
The Market At North Park,41 Rio Robles E,San Jose,-121.94203,37.406307,Santa Clara
Corner Shop Stop,1684 S 7th St,San Jose,-121.86544,37.314102,Santa Clara
Cardenas 220,727 1st St,Gilroy,-121.58296,37.013477,Santa Clara
Chavez Supermarket 8,646 Blossom Hill Rd,San Jose,-121.84521,37.250465,Santa Clara
Target 2830,2004 El Camino Real,Santa Clara,-121.96095,37.352283,Santa Clara
Target Store T-2581,95 Holger Way,San Jose,-121.95493,37.417427,Santa Clara
7-Eleven 18219 E,951 S Winchester Blvd,San Jose,-121.95011,37.309513,Santa Clara
Anchor Business Ventures Inc 83297,5498 Monterey Hwy,San Jose,-121.80374,37.256599,Santa Clara
LION SUPER,1710 Tully Rd,San Jose,-121.82529,37.322624,Santa Clara
7 Eleven 38411a 38411A,96 S 3rd St,San Jose,-121.88755,37.336018,Santa Clara
HAPPY HOLLOW MARKET,1704 Senter Rd,San Jose,-121.85825,37.318054,Santa Clara
LA MEXICANA BAKERY,1170 E William St,San Jose,-121.86253,37.341167,Santa Clara
7 Eleven 2366 14236C,1555 Los Padres Blvd,Santa Clara,-121.96487,37.351753,Santa Clara
California Food Mart,100 W Hamilton Ave,Campbell,-121.95178,37.294163,Santa Clara
Madrone Market N/A,19120 Monterey Rd,Morgan Hill,-121.67115,37.150249,Santa Clara
SMART & FINAL 530,1783 Hillsdale Ave,San Jose,-121.91567,37.264332,Santa Clara
Quik Stop Market 4093,8400 Church St,Gilroy,-121.57708,37.019405,Santa Clara
Walmart SuperCenter 5435,777 Story Rd,San Jose,-121.85853,37.329563,Santa Clara
Sprouts Farmers Market 406,1028 E Brokaw Rd,San Jose,-121.89948,37.382626,Santa Clara
Quik Stop Market 9069,1105 Leeward Dr,San Jose,-121.83044,37.348225,Santa Clara
7 Eleven Store 18965C,1408 N 1st St,San Jose,-121.90962,37.361969,Santa Clara
COUNTRY SUN NATURAL FOODS,440 S California Ave,Palo Alto,-122.14512,37.426022,Santa Clara
Lucky 723,2175 Grant Rd,Los Altos,-122.07232,37.341747,Santa Clara
Lime Tree Market,812 S Winchester Blvd,San Jose,-121.95,37.31274,Santa Clara
7-eleven 15071D,6059 Cahalan Ave,San Jose,-121.85049,37.239723,Santa Clara
7-ELEVEN 14336 E,77 Newell Rd,Palo Alto,-122.13661,37.456913,Santa Clara
7-Eleven 15440 E,787 S 11th St,San Jose,-121.87146,37.32962,Santa Clara
GURU MARKET 7,300 N 13th St,San Jose,-121.88137,37.346554,Santa Clara
QUIK STOP MARKET 4040,3695 Pearl Ave,San Jose,-121.86949,37.273216,Santa Clara
NOB HILL FOODS  603,451 Vineyard Town Ctr,Morgan Hill,-121.6422,37.110447,Santa Clara
Ahlone Chynoweth Mini Market,5330 Terner Way,San Jose,-121.862,37.25761,Santa Clara
Cardenas 212,320 N Capitol Ave,San Jose,-121.84332,37.37064,Santa Clara
7 Eleven 14321c 14321C,1951 Old Middlefield Way,Mountain View,-122.08962,37.414017,Santa Clara
MOLLIE STONE'S MARKETS,164 S California Ave,Palo Alto,-122.14288,37.428818,Santa Clara
Zanotto's Family Market 1,1970 Naglee Ave,San Jose,-121.93118,37.328445,Santa Clara
SAFEWAY 1483,1530 Hamilton Ave,San Jose,-121.91108,37.294403,Santa Clara
NOB HILL FOODS 606,1602 W Campbell Ave,Campbell,-121.97822,37.285965,Santa Clara
SAFEWAY  919,12876 Saratoga Sunnyvale Rd,Saratoga,-122.03226,37.281044,Santa Clara
THE MILK PAIL DAIRY,2585 California St,Mountain View,-122.10998,37.405445,Santa Clara
7-ELEVEN #14215 G,815 Bing Dr,Santa Clara,-121.9929,37.338566,Santa Clara
"THIEN THANH SUPERMARKET, INC.",1080 S 10th St,San Jose,-121.86894,37.324562,Santa Clara
SAFEWAY 2815,470 N Santa Cruz Ave,Los Gatos,-121.97952,37.231857,Santa Clara
7-ELEVEN 14255 A,1413 Kooser Rd,San Jose,-121.89055,37.246185,Santa Clara
Costco 1267,6898 Raleigh Rd,San Jose,-121.7962,37.245453,Santa Clara
SAFEWAY  1439,785 E El Camino Real,Sunnyvale,-122.01857,37.356594,Santa Clara
SAFEWAY  929,2558 Berryessa Rd,San Jose,-121.85812,37.388683,Santa Clara
NOB HILL FOODS  602,777 1st St,Gilroy,-121.58531,37.013535,Santa Clara
NOB HILL FOODS  604,15710 Los Gatos Blvd,Los Gatos,-121.96097,37.239891,Santa Clara
ROCCA'S MARKET,13335 Monterey Hwy,San Martin,-121.61081,37.085621,Santa Clara
Moffett Field Commissary 1533,67 N Akron Dr,Moffett Field,-122.05835,37.411892,Santa Clara
SAFEWAY  695,6477 Almaden Expy,San Jose,-121.86071,37.220306,Santa Clara
SAFEWAY 1526,3071 Stevens Creek Blvd,Santa Clara,-121.94926,37.32338,Santa Clara
SAFEWAY  700,2760 Homestead Rd,Santa Clara,-121.9745,37.339054,Santa Clara
SAFEWAY 705,570 N Shoreline Blvd,Mountain View,-122.08655,37.390675,Santa Clara
SAFEWAY  1682,2811 Middlefield Rd,Palo Alto,-122.12784,37.432514,Santa Clara
SAFEWAY  763,2605 The Alameda,Santa Clara,-121.9361,37.345684,Santa Clara
SAFEWAY  742,1500 Pollard Rd,Los Gatos,-121.98438,37.264523,Santa Clara
SAFEWAY  767,6150 Bollinger Rd,San Jose,-122.01167,37.310463,Santa Clara
LUNARDI MARKET 3,720 Blossom Hill Rd,Los Gatos,-121.96215,37.235458,Santa Clara
Lucky 765,430 Blossom Hill Rd,San Jose,-121.82951,37.251213,Santa Clara
Lucky 727,1350 S Park Victoria Dr,Milpitas,-121.87514,37.416592,Santa Clara
7-Eleven 14254B,3497 Marten Ave,San Jose,-121.79733,37.350414,Santa Clara
Grocery Outlet of San Jose 168,2300 Monterey Hwy,San Jose,-121.85888,37.30143,Santa Clara
S & S MARKET,1148 S Capitol Ave,San Jose,-121.82624,37.350266,Santa Clara
DAI THANH INC,418 S 2nd St,San Jose,-121.88467,37.3302,Santa Clara
Mexican Brother Market,100 W Alma Ave,San Jose,-121.87534,37.315411,Santa Clara
Lucky 7 Supermarket,1675 Tully Rd,San Jose,-121.82683,37.321884,Santa Clara
Lucky 757,2027 Camden Ave,San Jose,-121.93272,37.261799,Santa Clara
Food Maxx 483,5510 Monterey Hwy,San Jose,-121.80007,37.254467,Santa Clara
OCEAN SUPERMARKET,2 S Park Victoria Dr,Milpitas,-121.88425,37.435604,Santa Clara
SAFEWAY 1196,639 S Bernardo Ave,Sunnyvale,-122.05659,37.37318,Santa Clara
PINK ELEPHANT BAKERY,415 S King Rd,San Jose,-121.84856,37.34544,Santa Clara
Rotten Robbie 7,1051 S De Anza Blvd,San Jose,-122.03242,37.308559,Santa Clara
Rotten Robbie 45,1555 Saratoga Ave,San Jose,-121.99015,37.293533,Santa Clara
TRADER JOE'S  181,15466 Los Gatos Blvd,Los Gatos,-121.9585,37.245106,Santa Clara
WALGREENS 7080,105 E El Camino Real,Sunnyvale,-122.0321,37.367756,Santa Clara
Downtown San Jose Grocery Outlet,272 E Santa Clara St,San Jose,-121.8848,37.338913,Santa Clara
Arteagas Grocers Inc.,2620 Alum Rock Ave,San Jose,-121.83713,37.361401,Santa Clara
Target Store 2605,5630 Corrle Rd,San Jose,-121.86242,37.394199,Santa Clara
Walmart Neighborhood Market 3123,3255 Mission College Blvd,Santa Clara,-121.98547,37.388718,Santa Clara
Rotten Robbie 33,3471 Lafayette St,Santa Clara,-121.95085,37.38335,Santa Clara
Madras Groceries,1187 W El Camino Real,Sunnyvale,-122.05538,37.373707,Santa Clara
As Om Inc.,1718 Ocala Ave,San Jose,-121.83409,37.33139,Santa Clara
Six To Midnite,5562 Monterey Hwy,San Jose,-121.79739,37.252792,Santa Clara
Whole Foods Market 10259,777 The Alameda,San Jose,-121.9052,37.331833,Santa Clara
Milpitas Grocery Outlet,215 W Calaveras Blvd,Milpitas,-121.91017,37.428516,Santa Clara
6 To Late 4,2875 Senter Rd,San Jose,-121.83896,37.298882,Santa Clara
DOLLARTREE 7926,1054 S White Rd,San Jose,-121.81959,37.356655,Santa Clara
Rotten Robbie 43,1304 Piedmont Rd,San Jose,-121.84712,37.400215,Santa Clara
Lucky's Diskount Liquor 1,3290 El Camino Real,Santa Clara,-121.9865,37.352276,Santa Clara
Safeway 2900,5760 Cottle Rd,San Jose,-121.80386,37.247345,Santa Clara
Super Gas & Mart,498 S 4th St,San Jose,-121.88187,37.330284,Santa Clara
Arteagas Food Center,204 Willow St,San Jose,-121.88236,37.318806,Santa Clara
Battambang Oriental Grocery,1091 McCreery Ave,San Jose,-121.8409,37.342316,Santa Clara
Bob's Discount Liquor 9,2036 Agnew Rd,Santa Clara,-121.96022,37.394199,Santa Clara
Middle East Food,26 Washington St,Santa Clara,-121.93825,37.338425,Santa Clara
Sprouts Farmers Market 433,1771 E Capitol Expy,San Jose,-121.80971,37.308529,Santa Clara
Rotten Robbie 02,4200 Williams Rd,San Jose,-121.97786,37.308094,Santa Clara
Prs Foods Inc,1202 Apollo Way,Sunnyvale,-121.99492,37.379124,Santa Clara
7 Eleven Store 2367 34363B,4156 Monterey Hwy,San Jose,-121.83463,37.277569,Santa Clara
Mountain View Farmers Market,600 W Evelyn Ave,Mountain View,-122.07618,37.393951,Santa Clara
Grocery Outlet Of East San Jose 130,331 N Capitol Ave,San Jose,-121.84433,37.371227,Santa Clara
EL BUEN GUSTO BAKERY,436 S King Rd,San Jose,-121.84816,37.345161,Santa Clara
7-Eleven Store 14281D,2170 Fruitdale Ave,San Jose,-121.9309,37.310646,Santa Clara
SAFEWAY 1891,235 Tennant Sta,Morgan Hill,-121.63887,37.114506,Santa Clara
Jacklin Shell 139,990 Jacklin Rd,Milpitas,-121.89272,37.446861,Santa Clara
6 To Late 5,2051 Scott St,San Jose,-121.92811,37.319874,Santa Clara
6 To Late 3,3844 Monterey Hwy,San Jose,-121.83901,37.281872,Santa Clara
R & D Liquor,3120 Alum Rock Ave,San Jose,-121.82753,37.365978,Santa Clara
6 To Late 6,690 S Almaden Ave,San Jose,-121.88593,37.323959,Santa Clara
"Chaparral Supermarket, Inc.",1001 E Santa Clara St,San Jose,-121.87041,37.345779,Santa Clara
7-ELEVEN #29943 A,1430 Fruitdale Ave,San Jose,-121.91607,37.310665,Santa Clara
Safeway 3095,2980 E Capital Expressway,San Jose,-121.81184,37.330196,Santa Clara
Sunnyvale Farmers' Market,Murphy Ave.,Sunnyvale,-122.03016,37.376812,Santa Clara
California Avenue Farmers' Market,California Avenue,Palo Alto,-122.14743,37.423168,Santa Clara
Eastridge Liquors,1855 Tully Rd,San Jose,-121.82465,37.323357,Santa Clara
Nilgiris Cash And Carry,118 S Abel St,Milpitas,-121.90833,37.427937,Santa Clara
La Rica Panaderia 1,233 S White Rd,San Jose,-121.82527,37.362789,Santa Clara
Va Palo Alto,3801 Miranda Ave.,Palo Alto,-122.13911,37.401314,Santa Clara
Campbell Farmers' Market,Campbell Avenue & 2nd Street,Campbell,-121.94603,37.287052,Santa Clara
ZAD Grocery,4481 Stevens Creek Blvd,Santa Clara,-121.98085,37.323147,Santa Clara
Liquor & Food Mart,734 S Fair Oaks Ave,Sunnyvale,-122.02479,37.362301,Santa Clara
OAKWOOD MARKET,2106 Oakwood Dr,Palo Alto,-122.14772,37.464993,Santa Clara
7-Eleven 14299 C,1335 S Bascom Ave,San Jose,-121.93173,37.3008,Santa Clara
7 Eleven 2366- 14333E,2640 California St,Mountain View,-122.11169,37.406345,Santa Clara
Downtown Palo Alto Farmers' Market,601 Gilman St,Palo Alto,-122.15965,37.445717,Santa Clara
International Express Market,5899 Santa Teresa Blvd,San Jose,-121.83079,37.236805,Santa Clara
Tana Ethio Market,1358 S Winchester Blvd,San Jose,-121.94981,37.29969,Santa Clara
Super India,2772 Aborn Rd,San Jose,-121.79257,37.313705,Santa Clara
San Miguel Taqueria Y Carniceria,960 E Santa Clara St,San Jose,-121.8713,37.345291,Santa Clara
7 Eleven Store 22277C,1771 Clear Lake Ave,Milpitas,-121.87241,37.418762,Santa Clara
Starbrite Market 1,893 Delmas Ave,San Jose,-121.89314,37.317211,Santa Clara
Rotten Robbie 4,310 N Whisman Rd,Mountain View,-122.0595,37.397594,Santa Clara
Bascom Liquor And Food,3750 S Bascom Ave,San Jose,-121.9468,37.259811,Santa Clara
Chevron 1765,10023 S de Anza Blvd,Cupertino,-122.03243,37.322521,Santa Clara
Abadir Grocery,1065 Lafayette St,Santa Clara,-121.9437,37.350777,Santa Clara
Rotten Robbie 24,605 S White Rd,San Jose,-121.82237,37.359612,Santa Clara
Grocery Outlet of Palo Alto,3445 Alma St,Palo Alto,-122.12447,37.418667,Santa Clara
Santa Clara Produce Market 1,805 Scott Blvd,Santa Clara,-121.95937,37.343971,Santa Clara
A1 Groceries,143 E Virginia St,San Jose,-121.87869,37.325466,Santa Clara
H & R Liquors 1,900 Lincoln Ave,San Jose,-121.90536,37.314178,Santa Clara
Namaste Plaza,1763 E Capitol Expy,San Jose,-121.8096,37.30867,Santa Clara
Cal Foods Deli,195 S 28th St,San Jose,-121.86198,37.345737,Santa Clara
7 Eleven 25717E,21490 Mcclellan Rd,Cupertino,-122.0501,37.315563,Santa Clara
Clydes Liquor,3963 Snell Ave,San Jose,-121.8412,37.27602,Santa Clara
7-Eleven 16687C,615 S Rengstorff Ave,Mountain View,-122.10146,37.396542,Santa Clara
Baby Nutrition,3117 Alum Rock Ave,San Jose,-121.82758,37.366146,Santa Clara
Target 3224,19499 Stevens Creek Blvd,Cupertino,-122.01137,37.323059,Santa Clara
La Raza Super Market,960 E Santa Clara St,San Jose,-121.8713,37.345295,Santa Clara
Whole Foods Market 10633,2732 Augustine Dr,Santa Clara,-121.97647,37.38232,Santa Clara